[
  {
    "OBJECT_NAME": "STARLINK-35653",
    "OBJECT_ID": "25237J",
    "EPOCH": "2025-11-11T06:00:02.000160",
    "MEAN_MOTION": 15.57341856,
    "ECCENTRICITY": 8.17e-05,
    "INCLINATION": 53.1592,
    "RA_OF_ASC_NODE": 236.3458,
    "ARG_OF_PERICENTER": 94.478,
    "MEAN_ANOMALY": 284.5436,
    "EPHEMERIS_TYPE": 0,
    "CLASSIFICATION_TYPE": "U",
    "NORAD_CAT_ID": 66122,
    "ELEMENT_SET_NO": 999,
    "REV_AT_EPOCH": 441,
    "BSTAR": 0.0,
    "MEAN_MOTION_DOT": -0.01932289,
    "MEAN_MOTION_DDOT": 0.0,
    "TLE_LINE1": "1 66122U 25237J   25315.25002315 -.01932289  00000+0 -29457-1 0  9993",
    "TLE_LINE2": "2 66122  53.1592 236.3458 0000817  94.4780 284.5436 15.57341856  4419",
    "COMMENT": "Grouped by shell and plane from TLE"
  },
  {
    "OBJECT_NAME": "STARLINK-35628",
    "OBJECT_ID": "25237K",
    "EPOCH": "2025-11-11T06:00:02.000160",
    "MEAN_MOTION": 15.57342336,
    "ECCENTRICITY": 9.02e-05,
    "INCLINATION": 53.1593,
    "RA_OF_ASC_NODE": 236.342,
    "ARG_OF_PERICENTER": 97.2522,
    "MEAN_ANOMALY": 283.6865,
    "EPHEMERIS_TYPE": 0,
    "CLASSIFICATION_TYPE": "U",
    "NORAD_CAT_ID": 66123,
    "ELEMENT_SET_NO": 999,
    "REV_AT_EPOCH": 441,
    "BSTAR": 0.0,
    "MEAN_MOTION_DOT": -0.01933873,
    "MEAN_MOTION_DDOT": 0.0,
    "TLE_LINE1": "1 66123U 25237K   25315.25002315 -.01933873  00000+0 -29483-1 0  9993",
    "TLE_LINE2": "2 66123  53.1593 236.3420 0000902  97.2522 283.6865 15.57342336  4410",
    "COMMENT": "Grouped by shell and plane from TLE"
  },
  {
    "OBJECT_NAME": "STARLINK-35645",
    "OBJECT_ID": "25237L",
    "EPOCH": "2025-11-11T06:00:02.000160",
    "MEAN_MOTION": 15.57339722,
    "ECCENTRICITY": 8.55e-05,
    "INCLINATION": 53.1592,
    "RA_OF_ASC_NODE": 236.338,
    "ARG_OF_PERICENTER": 94.1758,
    "MEAN_ANOMALY": 288.6813,
    "EPHEMERIS_TYPE": 0,
    "CLASSIFICATION_TYPE": "U",
    "NORAD_CAT_ID": 66124,
    "ELEMENT_SET_NO": 999,
    "REV_AT_EPOCH": 441,
    "BSTAR": 0.0,
    "MEAN_MOTION_DOT": -0.01929466,
    "MEAN_MOTION_DDOT": 0.0,
    "TLE_LINE1": "1 66124U 25237L   25315.25002315 -.01929466  00000+0 -29410-1 0  9997",
    "TLE_LINE2": "2 66124  53.1592 236.3380 0000855  94.1758 288.6813 15.57339722  4412",
    "COMMENT": "Grouped by shell and plane from TLE"
  },
  {
    "OBJECT_NAME": "STARLINK-35649",
    "OBJECT_ID": "25237M",
    "EPOCH": "2025-11-11T06:00:02.000160",
    "MEAN_MOTION": 15.57337739,
    "ECCENTRICITY": 9.71e-05,
    "INCLINATION": 53.1591,
    "RA_OF_ASC_NODE": 236.3342,
    "ARG_OF_PERICENTER": 96.2418,
    "MEAN_ANOMALY": 288.5322,
    "EPHEMERIS_TYPE": 0,
    "CLASSIFICATION_TYPE": "U",
    "NORAD_CAT_ID": 66125,
    "ELEMENT_SET_NO": 999,
    "REV_AT_EPOCH": 441,
    "BSTAR": 0.0,
    "MEAN_MOTION_DOT": -0.01926936,
    "MEAN_MOTION_DDOT": 0.0,
    "TLE_LINE1": "1 66125U 25237M   25315.25002315 -.01926936  00000+0 -29367-1 0  9998",
    "TLE_LINE2": "2 66125  53.1591 236.3342 0000971  96.2418 288.5322 15.57337739  4415",
    "COMMENT": "Grouped by shell and plane from TLE"
  },
  {
    "OBJECT_NAME": "STARLINK-35658",
    "OBJECT_ID": "25237N",
    "EPOCH": "2025-11-11T06:00:02.000160",
    "MEAN_MOTION": 15.57340502,
    "ECCENTRICITY": 9.21e-05,
    "INCLINATION": 53.1593,
    "RA_OF_ASC_NODE": 236.329,
    "ARG_OF_PERICENTER": 99.0851,
    "MEAN_ANOMALY": 287.6033,
    "EPHEMERIS_TYPE": 0,
    "CLASSIFICATION_TYPE": "U",
    "NORAD_CAT_ID": 66126,
    "ELEMENT_SET_NO": 999,
    "REV_AT_EPOCH": 441,
    "BSTAR": 0.0,
    "MEAN_MOTION_DOT": -0.01929556,
    "MEAN_MOTION_DDOT": 0.0,
    "TLE_LINE1": "1 66126U 25237N   25315.25002315 -.01929556  00000+0 -29410-1 0  9999",
    "TLE_LINE2": "2 66126  53.1593 236.3290 0000921  99.0851 287.6033 15.57340502  4418",
    "COMMENT": "Grouped by shell and plane from TLE"
  },
  {
    "OBJECT_NAME": "STARLINK-35629",
    "OBJECT_ID": "25237P",
    "EPOCH": "2025-11-11T06:00:02.000160",
    "MEAN_MOTION": 15.57344626,
    "ECCENTRICITY": 7.57e-05,
    "INCLINATION": 53.1592,
    "RA_OF_ASC_NODE": 236.326,
    "ARG_OF_PERICENTER": 97.0372,
    "MEAN_ANOMALY": 291.5678,
    "EPHEMERIS_TYPE": 0,
    "CLASSIFICATION_TYPE": "U",
    "NORAD_CAT_ID": 66127,
    "ELEMENT_SET_NO": 999,
    "REV_AT_EPOCH": 441,
    "BSTAR": 0.0,
    "MEAN_MOTION_DOT": -0.01936494,
    "MEAN_MOTION_DDOT": 0.0,
    "TLE_LINE1": "1 66127U 25237P   25315.25002315 -.01936494  00000+0 -29527-1 0  9998",
    "TLE_LINE2": "2 66127  53.1592 236.3260 0000757  97.0372 291.5678 15.57344626  4418",
    "COMMENT": "Grouped by shell and plane from TLE"
  },
  {
    "OBJECT_NAME": "STARLINK-35612",
    "OBJECT_ID": "25237Q",
    "EPOCH": "2025-11-11T06:00:02.000160",
    "MEAN_MOTION": 15.5733951,
    "ECCENTRICITY": 8.78e-05,
    "INCLINATION": 53.1591,
    "RA_OF_ASC_NODE": 236.3213,
    "ARG_OF_PERICENTER": 96.9423,
    "MEAN_ANOMALY": 293.5798,
    "EPHEMERIS_TYPE": 0,
    "CLASSIFICATION_TYPE": "U",
    "NORAD_CAT_ID": 66128,
    "ELEMENT_SET_NO": 999,
    "REV_AT_EPOCH": 441,
    "BSTAR": 0.0,
    "MEAN_MOTION_DOT": -0.01927525,
    "MEAN_MOTION_DDOT": 0.0,
    "TLE_LINE1": "1 66128U 25237Q   25315.25002315 -.01927525  00000+0 -29376-1 0  9996",
    "TLE_LINE2": "2 66128  53.1591 236.3213 0000878  96.9423 293.5798 15.57339510  4416",
    "COMMENT": "Grouped by shell and plane from TLE"
  },
  {
    "OBJECT_NAME": "STARLINK-35632",
    "OBJECT_ID": "25237R",
    "EPOCH": "2025-11-11T06:00:02.000160",
    "MEAN_MOTION": 15.57338819,
    "ECCENTRICITY": 9.37e-05,
    "INCLINATION": 53.1592,
    "RA_OF_ASC_NODE": 236.3171,
    "ARG_OF_PERICENTER": 99.2298,
    "MEAN_ANOMALY": 293.21,
    "EPHEMERIS_TYPE": 0,
    "CLASSIFICATION_TYPE": "U",
    "NORAD_CAT_ID": 66129,
    "ELEMENT_SET_NO": 999,
    "REV_AT_EPOCH": 441,
    "BSTAR": 0.0,
    "MEAN_MOTION_DOT": -0.01927784,
    "MEAN_MOTION_DDOT": 0.0,
    "TLE_LINE1": "1 66129U 25237R   25315.25002315 -.01927784  00000+0 -29381-1 0  9990",
    "TLE_LINE2": "2 66129  53.1592 236.3171 0000937  99.2298 293.2100 15.57338819  4418",
    "COMMENT": "Grouped by shell and plane from TLE"
  },
  {
    "OBJECT_NAME": "STARLINK-35637",
    "OBJECT_ID": "25237S",
    "EPOCH": "2025-11-11T06:00:02.000160",
    "MEAN_MOTION": 15.57347412,
    "ECCENTRICITY": 9.16e-05,
    "INCLINATION": 53.159,
    "RA_OF_ASC_NODE": 236.3128,
    "ARG_OF_PERICENTER": 92.3172,
    "MEAN_ANOMALY": 302.0372,
    "EPHEMERIS_TYPE": 0,
    "CLASSIFICATION_TYPE": "U",
    "NORAD_CAT_ID": 66130,
    "ELEMENT_SET_NO": 999,
    "REV_AT_EPOCH": 441,
    "BSTAR": 0.0,
    "MEAN_MOTION_DOT": -0.01943478,
    "MEAN_MOTION_DDOT": 0.0,
    "TLE_LINE1": "1 66130U 25237S   25315.25002315 -.01943478  00000+0 -29643-1 0  9991",
    "TLE_LINE2": "2 66130  53.1590 236.3128 0000916  92.3172 302.0372 15.57347412  4411",
    "COMMENT": "Grouped by shell and plane from TLE"
  },
  {
    "OBJECT_NAME": "STARLINK-35630",
    "OBJECT_ID": "25237T",
    "EPOCH": "2025-11-11T06:00:02.000160",
    "MEAN_MOTION": 15.57341483,
    "ECCENTRICITY": 8.65e-05,
    "INCLINATION": 53.1591,
    "RA_OF_ASC_NODE": 236.3094,
    "ARG_OF_PERICENTER": 96.0939,
    "MEAN_ANOMALY": 300.1765,
    "EPHEMERIS_TYPE": 0,
    "CLASSIFICATION_TYPE": "U",
    "NORAD_CAT_ID": 66131,
    "ELEMENT_SET_NO": 999,
    "REV_AT_EPOCH": 441,
    "BSTAR": 0.0,
    "MEAN_MOTION_DOT": -0.01928492,
    "MEAN_MOTION_DDOT": 0.0,
    "TLE_LINE1": "1 66131U 25237T   25315.25002315 -.01928492  00000+0 -29391-1 0  9991",
    "TLE_LINE2": "2 66131  53.1591 236.3094 0000865  96.0939 300.1765 15.57341483  4417",
    "COMMENT": "Grouped by shell and plane from TLE"
  },
  {
    "OBJECT_NAME": "STARLINK-34412",
    "OBJECT_ID": "25237U",
    "EPOCH": "2025-11-11T06:00:02.000160",
    "MEAN_MOTION": 15.57340614,
    "ECCENTRICITY": 8.45e-05,
    "INCLINATION": 53.1592,
    "RA_OF_ASC_NODE": 236.3055,
    "ARG_OF_PERICENTER": 92.0742,
    "MEAN_ANOMALY": 306.1153,
    "EPHEMERIS_TYPE": 0,
    "CLASSIFICATION_TYPE": "U",
    "NORAD_CAT_ID": 66132,
    "ELEMENT_SET_NO": 999,
    "REV_AT_EPOCH": 432,
    "BSTAR": 0.0,
    "MEAN_MOTION_DOT": -0.01928471,
    "MEAN_MOTION_DDOT": 0.0,
    "TLE_LINE1": "1 66132U 25237U   25315.25002315 -.01928471  00000+0 -29391-1 0  9999",
    "TLE_LINE2": "2 66132  53.1592 236.3055 0000845  92.0742 306.1153 15.57340614  4324",
    "COMMENT": "Grouped by shell and plane from TLE"
  },
  {
    "OBJECT_NAME": "STARLINK-35520",
    "OBJECT_ID": "25237V",
    "EPOCH": "2025-11-11T06:00:02.000160",
    "MEAN_MOTION": 15.5733946,
    "ECCENTRICITY": 9.42e-05,
    "INCLINATION": 53.1595,
    "RA_OF_ASC_NODE": 236.3012,
    "ARG_OF_PERICENTER": 95.5267,
    "MEAN_ANOMALY": 304.5796,
    "EPHEMERIS_TYPE": 0,
    "CLASSIFICATION_TYPE": "U",
    "NORAD_CAT_ID": 66133,
    "ELEMENT_SET_NO": 999,
    "REV_AT_EPOCH": 441,
    "BSTAR": 0.0,
    "MEAN_MOTION_DOT": -0.01927,
    "MEAN_MOTION_DDOT": 0.0,
    "TLE_LINE1": "1 66133U 25237V   25315.25002315 -.01927000  00000+0 -29366-1 0  9999",
    "TLE_LINE2": "2 66133  53.1595 236.3012 0000942  95.5267 304.5796 15.57339460  4411",
    "COMMENT": "Grouped by shell and plane from TLE"
  },
  {
    "OBJECT_NAME": "STARLINK-35525",
    "OBJECT_ID": "25237W",
    "EPOCH": "2025-11-11T06:00:02.000160",
    "MEAN_MOTION": 15.57341521,
    "ECCENTRICITY": 7.49e-05,
    "INCLINATION": 53.1593,
    "RA_OF_ASC_NODE": 236.2979,
    "ARG_OF_PERICENTER": 93.795,
    "MEAN_ANOMALY": 308.2274,
    "EPHEMERIS_TYPE": 0,
    "CLASSIFICATION_TYPE": "U",
    "NORAD_CAT_ID": 66134,
    "ELEMENT_SET_NO": 999,
    "REV_AT_EPOCH": 441,
    "BSTAR": 0.0,
    "MEAN_MOTION_DOT": -0.01928985,
    "MEAN_MOTION_DDOT": 0.0,
    "TLE_LINE1": "1 66134U 25237W   25315.25002315 -.01928985  00000+0 -29400-1 0  9992",
    "TLE_LINE2": "2 66134  53.1593 236.2979 0000749  93.7950 308.2274 15.57341521  4418",
    "COMMENT": "Grouped by shell and plane from TLE"
  }
]